{
  "type": "FeatureCollection",
  "features": [
    {
      "type": "Feature",
      "properties": {
        "norad_id": 34056,
        "name": "COSMOS 2251 DEB",
        "group": "cosmos-2251-debris",
        "lat": -12.094167608744854,
        "lon": 57.53185319593303,
        "alt_km": 869.9370284929873,
        "timestamp": "2025-12-21T07:34:34.908284+00:00",
        "meta_object_name": "COSMOS 2251 DEB",
        "meta_object_id": "1993-036JT",
        "meta_epoch": "2025-12-20T06:34:57.855072",
        "meta_mean_motion": 14.20580968,
        "meta_eccentricity": 0.01237601,
        "meta_inclination": 74.0586,
        "meta_ra_of_asc_node": 62.9046,
        "meta_arg_of_pericenter": 108.7592,
        "meta_mean_anomaly": 316.3034,
        "meta_ephemeris_type": 0,
        "meta_classification_type": "U",
        "meta_norad_cat_id": 34056,
        "meta_element_set_no": 999,
        "meta_rev_at_epoch": 86518,
        "meta_bstar": 0.0004934221,
        "meta_mean_motion_dot": 1.122e-05,
        "meta_mean_motion_ddot": 0,
        "tle_line1": "1 34056U 93036JT  25354.27428073  .00001122  00000+0  49342-3 0  9991",
        "tle_line2": "2 34056  74.0586  62.9046 0123760 108.7592 316.3034 14.20580968865189"
      },
      "geometry": {
        "type": "Point",
        "coordinates": [
          57.53185319593303,
          -12.094167608744854
        ]
      }
    },
    {
      "type": "Feature",
      "properties": {
        "norad_id": 34058,
        "name": "COSMOS 2251 DEB",
        "group": "cosmos-2251-debris",
        "lat": -45.13004919142858,
        "lon": 147.38220812916603,
        "alt_km": 1307.9706797123208,
        "timestamp": "2025-12-21T07:34:34.908293+00:00",
        "meta_object_name": "COSMOS 2251 DEB",
        "meta_object_id": "1993-036JV",
        "meta_epoch": "2025-12-20T20:00:29.932992",
        "meta_mean_motion": 13.56087752,
        "meta_eccentricity": 0.03776056,
        "meta_inclination": 73.9314,
        "meta_ra_of_asc_node": 164.9929,
        "meta_arg_of_pericenter": 158.692,
        "meta_mean_anomaly": 319.747,
        "meta_ephemeris_type": 0,
        "meta_classification_type": "U",
        "meta_norad_cat_id": 34058,
        "meta_element_set_no": 999,
        "meta_rev_at_epoch": 83252,
        "meta_bstar": 0.00052841817,
        "meta_mean_motion_dot": 5.66e-06,
        "meta_mean_motion_ddot": 0,
        "tle_line1": "1 34058U 93036JV  25354.83367978  .00000566  00000+0  52842-3 0  9991",
        "tle_line2": "2 34058  73.9314 164.9929 0377605 158.6920 319.7470 13.56087752832523"
      },
      "geometry": {
        "type": "Point",
        "coordinates": [
          147.38220812916603,
          -45.13004919142858
        ]
      }
    },
    {
      "type": "Feature",
      "properties": {
        "norad_id": 34059,
        "name": "COSMOS 2251 DEB",
        "group": "cosmos-2251-debris",
        "lat": -71.27071849452561,
        "lon": 112.50668216819498,
        "alt_km": 711.8890587187861,
        "timestamp": "2025-12-21T07:34:34.908302+00:00",
        "meta_object_name": "COSMOS 2251 DEB",
        "meta_object_id": "1993-036JW",
        "meta_epoch": "2025-12-20T22:35:04.793280",
        "meta_mean_motion": 14.52990757,
        "meta_eccentricity": 0.00184666,
        "meta_inclination": 74.0366,
        "meta_ra_of_asc_node": 170.8044,
        "meta_arg_of_pericenter": 247.311,
        "meta_mean_anomaly": 233.5755,
        "meta_ephemeris_type": 0,
        "meta_classification_type": "U",
        "meta_norad_cat_id": 34059,
        "meta_element_set_no": 999,
        "meta_rev_at_epoch": 88578,
        "meta_bstar": 0.00052092676,
        "meta_mean_motion_dot": 2.126e-05,
        "meta_mean_motion_ddot": 0,
        "tle_line1": "1 34059U 93036JW  25354.94102770  .00002126  00000+0  52093-3 0  9993",
        "tle_line2": "2 34059  74.0366 170.8044 0018466 247.3110 233.5755 14.52990757885781"
      },
      "geometry": {
        "type": "Point",
        "coordinates": [
          112.50668216819498,
          -71.27071849452561
        ]
      }
    },
    {
      "type": "Feature",
      "properties": {
        "norad_id": 34061,
        "name": "COSMOS 2251 DEB",
        "group": "cosmos-2251-debris",
        "lat": -54.46919226555412,
        "lon": 91.1645168712388,
        "alt_km": 762.710227205178,
        "timestamp": "2025-12-21T07:34:34.908311+00:00",
        "meta_object_name": "COSMOS 2251 DEB",
        "meta_object_id": "1993-036JY",
        "meta_epoch": "2025-12-20T19:07:35.755968",
        "meta_mean_motion": 14.40372637,
        "meta_eccentricity": 0.0020788,
        "meta_inclination": 74.0389,
        "meta_ra_of_asc_node": 248.4963,
        "meta_arg_of_pericenter": 324.2458,
        "meta_mean_anomaly": 104.996,
        "meta_ephemeris_type": 0,
        "meta_classification_type": "U",
        "meta_norad_cat_id": 34061,
        "meta_element_set_no": 999,
        "meta_rev_at_epoch": 88296,
        "meta_bstar": 0.00020574088,
        "meta_mean_motion_dot": 6.28e-06,
        "meta_mean_motion_ddot": 0,
        "tle_line1": "1 34061U 93036JY  25354.79694162  .00000628  00000+0  20574-3 0  9994",
        "tle_line2": "2 34061  74.0389 248.4963 0020788 324.2458 104.9960 14.40372637882965"
      },
      "geometry": {
        "type": "Point",
        "coordinates": [
          91.1645168712388,
          -54.46919226555412
        ]
      }
    },
    {
      "type": "Feature",
      "properties": {
        "norad_id": 34062,
        "name": "COSMOS 2251 DEB",
        "group": "cosmos-2251-debris",
        "lat": 68.85284585342932,
        "lon": -106.6009620980011,
        "alt_km": 629.1768734843063,
        "timestamp": "2025-12-21T07:34:34.908321+00:00",
        "meta_object_name": "COSMOS 2251 DEB",
        "meta_object_id": "1993-036JZ",
        "meta_epoch": "2025-12-20T10:15:22.938048",
        "meta_mean_motion": 14.78948215,
        "meta_eccentricity": 0.00736685,
        "meta_inclination": 74.0283,
        "meta_ra_of_asc_node": 122.9131,
        "meta_arg_of_pericenter": 200.4606,
        "meta_mean_anomaly": 216.6506,
        "meta_ephemeris_type": 0,
        "meta_classification_type": "U",
        "meta_norad_cat_id": 34062,
        "meta_element_set_no": 999,
        "meta_rev_at_epoch": 88709,
        "meta_bstar": 0.0018745638,
        "meta_mean_motion_dot": 0.00014476,
        "meta_mean_motion_ddot": 0,
        "tle_line1": "1 34062U 93036JZ  25354.42734882  .00014476  00000+0  18746-2 0  9992",
        "tle_line2": "2 34062  74.0283 122.9131 0073668 200.4606 216.6506 14.78948215887095"
      },
      "geometry": {
        "type": "Point",
        "coordinates": [
          -106.6009620980011,
          68.85284585342932
        ]
      }
    },
    {
      "type": "Feature",
      "properties": {
        "norad_id": 34064,
        "name": "COSMOS 2251 DEB",
        "group": "cosmos-2251-debris",
        "lat": -73.80489108010812,
        "lon": 174.60558082571865,
        "alt_km": 746.8997226832153,
        "timestamp": "2025-12-21T07:34:34.908330+00:00",
        "meta_object_name": "COSMOS 2251 DEB",
        "meta_object_id": "1993-036KB",
        "meta_epoch": "2025-12-20T18:55:30.288000",
        "meta_mean_motion": 14.42362501,
        "meta_eccentricity": 0.00223326,
        "meta_inclination": 74.032,
        "meta_ra_of_asc_node": 255.9361,
        "meta_arg_of_pericenter": 321.3645,
        "meta_mean_anomaly": 95.4544,
        "meta_ephemeris_type": 0,
        "meta_classification_type": "U",
        "meta_norad_cat_id": 34064,
        "meta_element_set_no": 999,
        "meta_rev_at_epoch": 88258,
        "meta_bstar": 0.00032633223,
        "meta_mean_motion_dot": 1.055e-05,
        "meta_mean_motion_ddot": 0,
        "tle_line1": "1 34064U 93036KB  25354.78854500  .00001055  00000+0  32633-3 0  9994",
        "tle_line2": "2 34064  74.0320 255.9361 0022332 321.3645  95.4544 14.42362501882582"
      },
      "geometry": {
        "type": "Point",
        "coordinates": [
          174.60558082571865,
          -73.80489108010812
        ]
      }
    },
    {
      "type": "Feature",
      "properties": {
        "norad_id": 34065,
        "name": "COSMOS 2251 DEB",
        "group": "cosmos-2251-debris",
        "lat": 24.890898418951814,
        "lon": 54.69267862338063,
        "alt_km": 775.6795986387624,
        "timestamp": "2025-12-21T07:34:34.908339+00:00",
        "meta_object_name": "COSMOS 2251 DEB",
        "meta_object_id": "1993-036KC",
        "meta_epoch": "2025-12-20T03:14:04.680960",
        "meta_mean_motion": 14.38070126,
        "meta_eccentricity": 0.00166771,
        "meta_inclination": 74.0353,
        "meta_ra_of_asc_node": 244.4999,
        "meta_arg_of_pericenter": 340.6993,
        "meta_mean_anomaly": 182.0759,
        "meta_ephemeris_type": 0,
        "meta_classification_type": "U",
        "meta_norad_cat_id": 34065,
        "meta_element_set_no": 999,
        "meta_rev_at_epoch": 88311,
        "meta_bstar": 0.00012127045,
        "meta_mean_motion_dot": 3.41e-06,
        "meta_mean_motion_ddot": 0,
        "tle_line1": "1 34065U 93036KC  25354.13477640  .00000341  00000+0  12127-3 0  9993",
        "tle_line2": "2 34065  74.0353 244.4999 0016677 340.6993 182.0759 14.38070126883119"
      },
      "geometry": {
        "type": "Point",
        "coordinates": [
          54.69267862338063,
          24.890898418951814
        ]
      }
    }
  ]
}